{"type": "FeatureCollection", "features": [ {"type": "Feature", "properties": {"norad_id": 51444, "name": "CSG-2", "group": "resource", "lat": -72.93384123796373, "lon": -40.023293633732685, "alt_km": 630.8683218978395, "timestamp": "2025-12-11T10:53:15.542797+00:00", "meta": {"OBJECT_NAME": "CSG-2", "OBJECT_ID": "2022-008A", "EPOCH": "2025-12-11T04:52:51.073824", "MEAN_MOTION": 14.82160896, "ECCENTRICITY": 0.000151, "INCLINATION": 97.8805, "RA_OF_ASC_NODE": 166.5494, "ARG_OF_PERICENTER": 83.2326, "MEAN_ANOMALY": 276.9059, "EPHEMERIS_TYPE": 0, "CLASSIFICATION_TYPE": "U", "NORAD_CAT_ID": 51444, "ELEMENT_SET_NO": 999, "REV_AT_EPOCH": 20874, "BSTAR": 0.00011478, "MEAN_MOTION_DOT": 8.62e-06, "MEAN_MOTION_DDOT": 0}, "tle": {"line1": "1 51444U 22008A   25345.20336891  .00000862  00000+0  11478-3 0  9990", "line2": "2 51444  97.8805 166.5494 0001510  83.2326 276.9059 14.82160896208747"}}, "geometry": {"type": "Point", "coordinates": [-40.023293633732685, -72.93384123796373]}}, {"type": "Feature", "properties": {"norad_id": 52912, "name": "GAOFEN-12 03", "group": "resource", "lat": -3.2540277892258067, "lon": 52.382988689587386, "alt_km": 634.8316332205632, "timestamp": "2025-12-11T10:53:15.542808+00:00", "meta": {"OBJECT_NAME": "GAOFEN-12 03", "OBJECT_ID": "2022-069A", "EPOCH": "2025-12-11T05:11:36.539232", "MEAN_MOTION": 14.79603258, "ECCENTRICITY": 0.000228, "INCLINATION": 97.8478, "RA_OF_ASC_NODE": 232.6006, "ARG_OF_PERICENTER": 63.0388, "MEAN_ANOMALY": 297.1056, "EPHEMERIS_TYPE": 0, "CLASSIFICATION_TYPE": "U", "NORAD_CAT_ID": 52912, "ELEMENT_SET_NO": 999, "REV_AT_EPOCH": 18681, "BSTAR": 0.00023591, "MEAN_MOTION_DOT": 1.717e-05, "MEAN_MOTION_DDOT": 0}, "tle": {"line1": "1 52912U 22069A   25345.21639513  .00001717  00000+0  23591-3 0  9995", "line2": "2 52912  97.8478 232.6006 0002280  63.0388 297.1056 14.79603258186812"}}, "geometry": {"type": "Point", "coordinates": [52.382988689587386, -3.2540277892258067]}}, {"type": "Feature", "properties": {"norad_id": 54754, "name": "SWOT", "group": "resource", "lat": 14.100009388207086, "lon": 105.56080336334868, "alt_km": 893.7783786520786, "timestamp": "2025-12-11T10:53:15.542819+00:00", "meta": {"OBJECT_NAME": "SWOT", "OBJECT_ID": "2022-173A", "EPOCH": "2025-12-11T04:57:19.479744", "MEAN_MOTION": 14.00174301, "ECCENTRICITY": 3.28e-05, "INCLINATION": 77.6105, "RA_OF_ASC_NODE": 289.0594, "ARG_OF_PERICENTER": 117.6405, "MEAN_ANOMALY": 242.478, "EPHEMERIS_TYPE": 0, "CLASSIFICATION_TYPE": "U", "NORAD_CAT_ID": 54754, "ELEMENT_SET_NO": 999, "REV_AT_EPOCH": 15284, "BSTAR": 3.8093e-05, "MEAN_MOTION_DOT": 5.4e-07, "MEAN_MOTION_DDOT": 0}, "tle": {"line1": "1 54754U 22173A   25345.20647546  .00000054  00000+0  38093-4 0  9998", "line2": "2 54754  77.6105 289.0594 0000328 117.6405 242.4780 14.00174301152845"}}, "geometry": {"type": "Point", "coordinates": [105.56080336334868, 14.100009388207086]}}, {"type": "Feature", "properties": {"norad_id": 57654, "name": "GAOFEN-12 04", "group": "resource", "lat": -7.754227638769434, "lon": -97.68472109137574, "alt_km": 634.1067094076752, "timestamp": "2025-12-11T10:53:15.542829+00:00", "meta": {"OBJECT_NAME": "GAOFEN-12 04", "OBJECT_ID": "2023-123A", "EPOCH": "2025-12-11T04:25:52.179744", "MEAN_MOTION": 14.7969288, "ECCENTRICITY": 0.0001352, "INCLINATION": 97.9116, "RA_OF_ASC_NODE": 260.9654, "ARG_OF_PERICENTER": 73.6894, "MEAN_ANOMALY": 286.4466, "EPHEMERIS_TYPE": 0, "CLASSIFICATION_TYPE": "U", "NORAD_CAT_ID": 57654, "ELEMENT_SET_NO": 999, "REV_AT_EPOCH": 12482, "BSTAR": 0.00031123, "MEAN_MOTION_DOT": 2.286e-05, "MEAN_MOTION_DDOT": 0}, "tle": {"line1": "1 57654U 23123A   25345.18463171  .00002286  00000+0  31123-3 0  9998", "line2": "2 57654  97.9116 260.9654 0001352  73.6894 286.4466 14.79692880124829"}}, "geometry": {"type": "Point", "coordinates": [-97.68472109137574, -7.754227638769434]}}, {"type": "Feature", "properties": {"norad_id": 59065, "name": "PARS 1", "group": "resource", "lat": 72.48216654769541, "lon": 160.90069166114338, "alt_km": 428.9614731481215, "timestamp": "2025-12-11T10:53:15.542841+00:00", "meta": {"OBJECT_NAME": "PARS 1", "OBJECT_ID": "2024-039Q", "EPOCH": "2025-12-11T04:11:48.228864", "MEAN_MOTION": 15.40916821, "ECCENTRICITY": 0.0012625, "INCLINATION": 97.4637, "RA_OF_ASC_NODE": 316.0747, "ARG_OF_PERICENTER": 76.8847, "MEAN_ANOMALY": 283.3808, "EPHEMERIS_TYPE": 0, "CLASSIFICATION_TYPE": "U", "NORAD_CAT_ID": 59065, "ELEMENT_SET_NO": 999, "REV_AT_EPOCH": 9964, "BSTAR": 0.00042262, "MEAN_MOTION_DOT": 0.00017357, "MEAN_MOTION_DDOT": 0}, "tle": {"line1": "1 59065U 24039Q   25345.17486376  .00017357  00000+0  42262-3 0  9995", "line2": "2 59065  97.4637 316.0747 0012625  76.8847 283.3808 15.40916821 99644"}}, "geometry": {"type": "Point", "coordinates": [160.90069166114338, 72.48216654769541]}}, {"type": "Feature", "properties": {"norad_id": 59371, "name": "RESURS-P 4", "group": "resource", "lat": -69.84331093933993, "lon": -47.88498451610549, "alt_km": 477.5611363435237, "timestamp": "2025-12-11T10:53:15.542852+00:00", "meta": {"OBJECT_NAME": "RESURS-P 4", "OBJECT_ID": "2024-061A", "EPOCH": "2025-12-11T04:55:39.605664", "MEAN_MOTION": 15.32065078, "ECCENTRICITY": 0.0001637, "INCLINATION": 97.2542, "RA_OF_ASC_NODE": 291.5667, "ARG_OF_PERICENTER": 52.7666, "MEAN_ANOMALY": 307.3725, "EPHEMERIS_TYPE": 0, "CLASSIFICATION_TYPE": "U", "NORAD_CAT_ID": 59371, "ELEMENT_SET_NO": 999, "REV_AT_EPOCH": 9497, "BSTAR": 0.00019672, "MEAN_MOTION_DOT": 6.014e-05, "MEAN_MOTION_DDOT": 0}, "tle": {"line1": "1 59371U 24061A   25345.20531951  .00006014  00000+0  19672-3 0  9991", "line2": "2 59371  97.2542 291.5667 0001637  52.7666 307.3725 15.32065078 94974"}}, "geometry": {"type": "Point", "coordinates": [-47.88498451610549, -69.84331093933993]}}, {"type": "Feature", "properties": {"norad_id": 59625, "name": "LEGION 1", "group": "resource", "lat": -45.59600576723866, "lon": -127.65003448715689, "alt_km": 523.7318702006996, "timestamp": "2025-12-11T10:53:15.542863+00:00", "meta": {"OBJECT_NAME": "LEGION 1", "OBJECT_ID": "2024-081A", "EPOCH": "2025-12-11T05:08:33.751392", "MEAN_MOTION": 15.16455976, "ECCENTRICITY": 0.0004059, "INCLINATION": 97.5211, "RA_OF_ASC_NODE": 59.8653, "ARG_OF_PERICENTER": 324.6839, "MEAN_ANOMALY": 35.4124, "EPHEMERIS_TYPE": 0, "CLASSIFICATION_TYPE": "U", "NORAD_CAT_ID": 59625, "ELEMENT_SET_NO": 999, "REV_AT_EPOCH": 8904, "BSTAR": 0.00041765, "MEAN_MOTION_DOT": 8.063e-05, "MEAN_MOTION_DDOT": 0}, "tle": {"line1": "1 59625U 24081A   25345.21427953  .00008063  00000+0  41765-3 0  9996", "line2": "2 59625  97.5211  59.8653 0004059 324.6839  35.4124 15.16455976 89042"}}, "geometry": {"type": "Point", "coordinates": [-127.65003448715689, -45.59600576723866]}}, {"type": "Feature", "properties": {"norad_id": 59626, "name": "LEGION 2", "group": "resource", "lat": 45.24677385955424, "lon": 52.53164042654728, "alt_km": 513.8200896377948, "timestamp": "2025-12-11T10:53:15.542875+00:00", "meta": {"OBJECT_NAME": "LEGION 2", "OBJECT_ID": "2024-081B", "EPOCH": "2025-12-11T04:21:07.513344", "MEAN_MOTION": 15.16465355, "ECCENTRICITY": 0.0005789, "INCLINATION": 97.5212, "RA_OF_ASC_NODE": 59.9199, "ARG_OF_PERICENTER": 300.1934, "MEAN_ANOMALY": 59.8725, "EPHEMERIS_TYPE": 0, "CLASSIFICATION_TYPE": "U", "NORAD_CAT_ID": 59626, "ELEMENT_SET_NO": 999, "REV_AT_EPOCH": 8904, "BSTAR": 0.00038887, "MEAN_MOTION_DOT": 7.506e-05, "MEAN_MOTION_DDOT": 0}, "tle": {"line1": "1 59626U 24081B   25345.18133696  .00007506  00000+0  38887-3 0  9993", "line2": "2 59626  97.5212  59.9199 0005789 300.1934  59.8725 15.16465355 89045"}}, "geometry": {"type": "Point", "coordinates": [52.53164042654728, 45.24677385955424]}}, {"type": "Feature", "properties": {"norad_id": 60182, "name": "ALOS-4 (DAICHI-4)", "group": "resource", "lat": -53.365386409634176, "lon": -110.47460273512004, "alt_km": 638.6672636752619, "timestamp": "2025-12-11T10:53:15.542885+00:00", "meta": {"OBJECT_NAME": "ALOS-4 (DAICHI-4)", "OBJECT_ID": "2024-123A", "EPOCH": "2025-12-10T20:50:51.532800", "MEAN_MOTION": 14.79478132, "ECCENTRICITY": 0.0001419, "INCLINATION": 97.9225, "RA_OF_ASC_NODE": 79.7424, "ARG_OF_PERICENTER": 101.2045, "MEAN_ANOMALY": 258.9326, "EPHEMERIS_TYPE": 0, "CLASSIFICATION_TYPE": "U", "NORAD_CAT_ID": 60182, "ELEMENT_SET_NO": 999, "REV_AT_EPOCH": 7803, "BSTAR": 0.00039567, "MEAN_MOTION_DOT": 2.905e-05, "MEAN_MOTION_DDOT": 0}, "tle": {"line1": "1 60182U 24123A   25344.86865200  .00002905  00000+0  39567-3 0  9990", "line2": "2 60182  97.9225  79.7424 0001419 101.2045 258.9326 14.79478132 78033"}}, "geometry": {"type": "Point", "coordinates": [-110.47460273512004, -53.365386409634176]}}, {"type": "Feature", "properties": {"norad_id": 60452, "name": "LEGION 3", "group": "resource", "lat": 44.811444784555775, "lon": 40.77900451214451, "alt_km": 514.7043016277185, "timestamp": "2025-12-11T10:53:15.542896+00:00", "meta": {"OBJECT_NAME": "LEGION 3", "OBJECT_ID": "2024-146A", "EPOCH": "2025-12-11T04:11:03.197184", "MEAN_MOTION": 15.15734328, "ECCENTRICITY": 0.0014701, "INCLINATION": 45.002, "RA_OF_ASC_NODE": 318.525, "ARG_OF_PERICENTER": 190.2358, "MEAN_ANOMALY": 169.8223, "EPHEMERIS_TYPE": 0, "CLASSIFICATION_TYPE": "U", "NORAD_CAT_ID": 60452, "ELEMENT_SET_NO": 999, "REV_AT_EPOCH": 7349, "BSTAR": 0.00042407, "MEAN_MOTION_DOT": 7.985e-05, "MEAN_MOTION_DDOT": 0}, "tle": {"line1": "1 60452U 24146A   25345.17434256  .00007985  00000+0  42407-3 0  9993", "line2": "2 60452  45.0020 318.5250 0014701 190.2358 169.8223 15.15734328 73498"}}, "geometry": {"type": "Point", "coordinates": [40.77900451214451, 44.811444784555775]}}]}